start=new Date('2022-12-08T00:00:00.000Z').valueOf();
sats=[{"OBJECT_TYPE":"PAYLOAD","ARG_OF_PERICENTER":"35.8941","MEAN_ANOMALY":"324.2225","INCLINATION":"53.2176","TLE_LINE1":"1 51140U 22005AN  22341.70451694 -.00000947  00000-0 -41358-4 0  9995","CENTER_NAME":"EARTH","LAUNCH_DATE":"2022-01-19","REF_FRAME":"TEME","SITE":"AFETR","RCS_SIZE":"LARGE","MEAN_MOTION_DDOT":"0.0000000000000","OBJECT_ID":"2022-005AN","CLASSIFICATION_TYPE":"U","ECCENTRICITY":"0.00026010","GP_ID":"219741337","EPHEMERIS_TYPE":"0","PERIOD":"95.438","MEAN_MOTION_DOT":"-0.00000947","EPOCH":"2022-12-07T16:54:30.263616","MEAN_ELEMENT_THEORY":"SGP4","PERIAPSIS":"537.972","REV_AT_EPOCH":"4939","BSTAR":"-0.00004135800000","MEAN_MOTION":"15.08831605","APOAPSIS":"541.570","NORAD_CAT_ID":"51140","COUNTRY_CODE":"US","TIME_SYSTEM":"UTC","ELEMENT_SET_NO":"999","RA_OF_ASC_NODE":"232.1982","TLE_LINE2":"2 51140  53.2176 232.1982 0002601  35.8941 324.2225 15.08831605 49395","FILE":"3684212","SEMIMAJOR_AXIS":"6917.906","OBJECT_NAME":"STARLINK-3175","DECAY_DATE":null},{"OBJECT_TYPE":"PAYLOAD","ARG_OF_PERICENTER":"36.7816","MEAN_ANOMALY":"323.3395","INCLINATION":"53.2159","TLE_LINE1":"1 51141U 22005AP  22341.42114327 -.00000829  00000-0 -33937-4 0  9997","CENTER_NAME":"EARTH","LAUNCH_DATE":"2022-01-19","REF_FRAME":"TEME","SITE":"AFETR","RCS_SIZE":"LARGE","MEAN_MOTION_DDOT":"0.0000000000000","OBJECT_ID":"2022-005AP","CLASSIFICATION_TYPE":"U","ECCENTRICITY":"0.00032010","GP_ID":"219741587","EPHEMERIS_TYPE":"0","PERIOD":"95.438","MEAN_MOTION_DOT":"-0.00000829","EPOCH":"2022-12-07T10:06:26.778528","MEAN_ELEMENT_THEORY":"SGP4","PERIAPSIS":"537.534","REV_AT_EPOCH":"4935","BSTAR":"-0.00003393700000","MEAN_MOTION":"15.08839007","APOAPSIS":"541.963","NORAD_CAT_ID":"51141","COUNTRY_CODE":"US","TIME_SYSTEM":"UTC","RA_OF_ASC_NODE":"233.4757","ELEMENT_SET_NO":"999","TLE_LINE2":"2 51141  53.2159 233.4757 0003201  36.7816 323.3395 15.08839007 49357","FILE":"3684212","SEMIMAJOR_AXIS":"6917.883","DECAY_DATE":null,"OBJECT_NAME":"STARLINK-3179"},{"RCS_SIZE":"LARGE","SITE":"AFETR","ECCENTRICITY":"0.00027450","CLASSIFICATION_TYPE":"U","OBJECT_ID":"2022-005AQ","MEAN_MOTION_DDOT":"0.0000000000000","TLE_LINE1":"1 51142U 22005AQ  22341.81311015  .00002156  00000-0  15355-3 0  9990","REF_FRAME":"TEME","LAUNCH_DATE":"2022-01-19","CENTER_NAME":"EARTH","INCLINATION":"53.2151","MEAN_ANOMALY":"323.2639","ARG_OF_PERICENTER":"36.8542","OBJECT_TYPE":"PAYLOAD","FILE":"3684212","TLE_LINE2":"2 51142  53.2151 221.7169 0002745  36.8542 323.2639 15.08838783 49547","ELEMENT_SET_NO":"999","RA_OF_ASC_NODE":"221.7169","DECAY_DATE":null,"OBJECT_NAME":"STARLINK-3369","SEMIMAJOR_AXIS":"6917.884","NORAD_CAT_ID":"51142","APOAPSIS":"541.648","MEAN_MOTION":"15.08838783","TIME_SYSTEM":"UTC","COUNTRY_CODE":"US","MEAN_ELEMENT_THEORY":"SGP4","EPOCH":"2022-12-07T19:30:52.716960","MEAN_MOTION_DOT":"0.00002156","BSTAR":"0.00015355000000","REV_AT_EPOCH":"4954","PERIAPSIS":"537.850","EPHEMERIS_TYPE":"0","GP_ID":"219742839","PERIOD":"95.438"},{"REF_FRAME":"TEME","LAUNCH_DATE":"2022-01-19","CENTER_NAME":"EARTH","TLE_LINE1":"1 51143U 22005AR  22341.47175429 -.00000672  00000-0 -24139-4 0  9994","ECCENTRICITY":"0.00020350","CLASSIFICATION_TYPE":"U","OBJECT_ID":"2022-005AR","MEAN_MOTION_DDOT":"0.0000000000000","RCS_SIZE":"LARGE","SITE":"AFETR","MEAN_ANOMALY":"319.8690","ARG_OF_PERICENTER":"40.2453","OBJECT_TYPE":"PAYLOAD","INCLINATION":"53.2166","TIME_SYSTEM":"UTC","COUNTRY_CODE":"US","NORAD_CAT_ID":"51143","APOAPSIS":"541.171","MEAN_MOTION":"15.08834230","DECAY_DATE":null,"OBJECT_NAME":"STARLINK-3184","SEMIMAJOR_AXIS":"6917.898","FILE":"3684212","TLE_LINE2":"2 51143  53.2166 243.2449 0002035  40.2453 319.8690 15.08834230 49211","ELEMENT_SET_NO":"999","RA_OF_ASC_NODE":"243.2449","PERIOD":"95.438","EPHEMERIS_TYPE":"0","GP_ID":"219743087","BSTAR":"-0.00002413900000","REV_AT_EPOCH":"4921","PERIAPSIS":"538.355","MEAN_ELEMENT_THEORY":"SGP4","EPOCH":"2022-12-07T11:19:19.570656","MEAN_MOTION_DOT":"-0.00000672"},{"EPHEMERIS_TYPE":"0","GP_ID":"219741838","PERIOD":"95.438","MEAN_ELEMENT_THEORY":"SGP4","EPOCH":"2022-12-07T16:33:18.415872","MEAN_MOTION_DOT":"-0.00000693","BSTAR":"-0.00002544900000","REV_AT_EPOCH":"4939","PERIAPSIS":"537.854","NORAD_CAT_ID":"51144","APOAPSIS":"541.676","MEAN_MOTION":"15.08833561","TIME_SYSTEM":"UTC","COUNTRY_CODE":"US","FILE":"3684212","TLE_LINE2":"2 51144  53.2169 232.2766 0002762  30.4442 329.6710 15.08833561 49398","ELEMENT_SET_NO":"999","RA_OF_ASC_NODE":"232.2766","OBJECT_NAME":"STARLINK-3185","DECAY_DATE":null,"SEMIMAJOR_AXIS":"6917.900","MEAN_ANOMALY":"329.6710","ARG_OF_PERICENTER":"30.4442","OBJECT_TYPE":"PAYLOAD","INCLINATION":"53.2169","TLE_LINE1":"1 51144U 22005AS  22341.68979648 -.00000693  00000-0 -25449-4 0  9991","REF_FRAME":"TEME","LAUNCH_DATE":"2022-01-19","CENTER_NAME":"EARTH","RCS_SIZE":"LARGE","SITE":"AFETR","ECCENTRICITY":"0.00027620","CLASSIFICATION_TYPE":"U","MEAN_MOTION_DDOT":"0.0000000000000","OBJECT_ID":"2022-005AS"},{"PERIOD":"95.438","GP_ID":"219742088","EPHEMERIS_TYPE":"0","BSTAR":"0.00028301000000","PERIAPSIS":"538.686","REV_AT_EPOCH":"4921","MEAN_ELEMENT_THEORY":"SGP4","MEAN_MOTION_DOT":"0.00004218","EPOCH":"2022-12-07T11:14:01.264416","COUNTRY_CODE":"US","TIME_SYSTEM":"UTC","APOAPSIS":"540.843","NORAD_CAT_ID":"51145","MEAN_MOTION":"15.08833655","OBJECT_NAME":"STARLINK-3365","DECAY_DATE":null,"SEMIMAJOR_AXIS":"6917.900","FILE":"3684212","ELEMENT_SET_NO":"999","RA_OF_ASC_NODE":"243.2649","TLE_LINE2":"2 51145  53.2145 243.2649 0001559  63.5847 296.5305 15.08833655 49211","ARG_OF_PERICENTER":"63.5847","MEAN_ANOMALY":"296.5305","OBJECT_TYPE":"PAYLOAD","INCLINATION":"53.2145","REF_FRAME":"TEME","CENTER_NAME":"EARTH","LAUNCH_DATE":"2022-01-19","TLE_LINE1":"1 51145U 22005AT  22341.46807019  .00004218  00000-0  28301-3 0  9994","CLASSIFICATION_TYPE":"U","ECCENTRICITY":"0.00015590","OBJECT_ID":"2022-005AT","MEAN_MOTION_DDOT":"0.0000000000000","RCS_SIZE":"MEDIUM","SITE":"AFETR"},{"FILE":"3684212","TLE_LINE2":"2 51146  53.2169 233.4274 0002374  37.4656 322.6501 15.08827407 49348","ELEMENT_SET_NO":"999","RA_OF_ASC_NODE":"233.4274","OBJECT_NAME":"STARLINK-3354","DECAY_DATE":null,"SEMIMAJOR_AXIS":"6917.919","NORAD_CAT_ID":"51146","APOAPSIS":"541.426","MEAN_MOTION":"15.08827407","TIME_SYSTEM":"UTC","COUNTRY_CODE":"US","MEAN_ELEMENT_THEORY":"SGP4","EPOCH":"2022-12-07T10:22:22.236384","MEAN_MOTION_DOT":"-0.00000567","BSTAR":"-0.00001752400000","REV_AT_EPOCH":"4934","PERIAPSIS":"538.142","EPHEMERIS_TYPE":"0","GP_ID":"219742339","PERIOD":"95.438","RCS_SIZE":"LARGE","SITE":"AFETR","ECCENTRICITY":"0.00023740","CLASSIFICATION_TYPE":"U","OBJECT_ID":"2022-005AU","MEAN_MOTION_DDOT":"0.0000000000000","TLE_LINE1":"1 51146U 22005AU  22341.43220181 -.00000567  00000-0 -17524-4 0  9992","REF_FRAME":"TEME","LAUNCH_DATE":"2022-01-19","CENTER_NAME":"EARTH","INCLINATION":"53.2169","MEAN_ANOMALY":"322.6501","ARG_OF_PERICENTER":"37.4656","OBJECT_TYPE":"PAYLOAD"},{"OBJECT_TYPE":"PAYLOAD","MEAN_ANOMALY":"322.1764","ARG_OF_PERICENTER":"37.9409","INCLINATION":"53.2154","LAUNCH_DATE":"2022-01-19","CENTER_NAME":"EARTH","REF_FRAME":"TEME","TLE_LINE1":"1 51147U 22005AV  22341.74038917 -.00001682  00000-0 -87567-4 0  9994","OBJECT_ID":"2022-005AV","MEAN_MOTION_DDOT":"0.0000000000000","ECCENTRICITY":"0.00025660","CLASSIFICATION_TYPE":"U","SITE":"AFETR","RCS_SIZE":"LARGE","PERIOD":"95.438","EPHEMERIS_TYPE":"0","GP_ID":"219742588","REV_AT_EPOCH":"4925","PERIAPSIS":"538.001","BSTAR":"-0.00008756700000","EPOCH":"2022-12-07T17:46:09.624288","MEAN_MOTION_DOT":"-0.00001682","MEAN_ELEMENT_THEORY":"SGP4","TIME_SYSTEM":"UTC","COUNTRY_CODE":"US","MEAN_MOTION":"15.08830068","NORAD_CAT_ID":"51147","APOAPSIS":"541.551","SEMIMAJOR_AXIS":"6917.911","DECAY_DATE":null,"OBJECT_NAME":"STARLINK-3352","TLE_LINE2":"2 51147  53.2154 242.0455 0002566  37.9409 322.1764 15.08830068 49257","ELEMENT_SET_NO":"999","RA_OF_ASC_NODE":"242.0455","FILE":"3684212"},{"PERIOD":"95.438","EPHEMERIS_TYPE":"0","GP_ID":"219741338","REV_AT_EPOCH":"4921","PERIAPSIS":"537.870","BSTAR":"-0.00006267200000","EPOCH":"2022-12-07T11:08:43.241568","MEAN_MOTION_DOT":"-0.00001286","MEAN_ELEMENT_THEORY":"SGP4","TIME_SYSTEM":"UTC","COUNTRY_CODE":"US","MEAN_MOTION":"15.08839619","NORAD_CAT_ID":"51148","APOAPSIS":"541.623","SEMIMAJOR_AXIS":"6917.882","DECAY_DATE":null,"OBJECT_NAME":"STARLINK-3359","TLE_LINE2":"2 51148  53.2177 243.2752 0002712  33.9598 326.1567 15.08839619 49216","ELEMENT_SET_NO":"999","RA_OF_ASC_NODE":"243.2752","FILE":"3684212","OBJECT_TYPE":"PAYLOAD","MEAN_ANOMALY":"326.1567","ARG_OF_PERICENTER":"33.9598","INCLINATION":"53.2177","LAUNCH_DATE":"2022-01-19","CENTER_NAME":"EARTH","REF_FRAME":"TEME","TLE_LINE1":"1 51148U 22005AW  22341.46438937 -.00001286  00000-0 -62672-4 0  9990","MEAN_MOTION_DDOT":"0.0000000000000","OBJECT_ID":"2022-005AW","ECCENTRICITY":"0.00027120","CLASSIFICATION_TYPE":"U","SITE":"AFETR","RCS_SIZE":"LARGE"},{"INCLINATION":"53.2171","MEAN_ANOMALY":"327.2769","ARG_OF_PERICENTER":"32.8379","OBJECT_TYPE":"PAYLOAD","ECCENTRICITY":"0.00025110","CLASSIFICATION_TYPE":"U","OBJECT_ID":"2022-005AX","MEAN_MOTION_DDOT":"0.0000000000000","RCS_SIZE":"LARGE","SITE":"AFETR","REF_FRAME":"TEME","LAUNCH_DATE":"2022-01-19","CENTER_NAME":"EARTH","TLE_LINE1":"1 51149U 22005AX  22341.46071783 -.00001637  00000-0 -84731-4 0  9993","BSTAR":"-0.00008473100000","REV_AT_EPOCH":"4921","PERIAPSIS":"538.028","MEAN_ELEMENT_THEORY":"SGP4","EPOCH":"2022-12-07T11:03:26.020512","MEAN_MOTION_DOT":"-0.00001637","PERIOD":"95.438","EPHEMERIS_TYPE":"0","GP_ID":"219741588","OBJECT_NAME":"STARLINK-3360","DECAY_DATE":null,"SEMIMAJOR_AXIS":"6917.900","FILE":"3684212","TLE_LINE2":"2 51149  53.2171 243.2823 0002511  32.8379 327.2769 15.08833539 49213","ELEMENT_SET_NO":"999","RA_OF_ASC_NODE":"243.2823","TIME_SYSTEM":"UTC","COUNTRY_CODE":"US","NORAD_CAT_ID":"51149","APOAPSIS":"541.502","MEAN_MOTION":"15.08833539"}];
